name,about,email,address,city,pcode,state,country,busph,faxph
121 Medical Centre,,medicalcentre121@hotmail.com,"121 Business Centre, 6/121 Shute Harbour Road",CANNONVALE,4802.0,QLD,Australia,4946 4622,4946 4624
A T S I C H S,,vickiet@atsichs.org.au,31-33 Victoria Street,MACKAY,4740.0,QLD,Australia,4957 9400,4953 1626
Abbott Medical Clinic,,manager@abbottmed.com.au,Shop 3/473 Mulgrave Road,EARLVILLE,4870.0,QLD,Australia,,4033 7744
Aboriginal Torres Strait Island Community Health Service,,vickiet@atsichs.org.au,31-33 Victoria Street,MACKAY,4740.0,QLD,Australia,4957 9400,4953 1626
Act For Kids,,brisbanenorth@actforkids.com.au,"Lot 1, Endeavour Drive",JAMES COOK UNIVERSITY,4811.0,QLD,Australia,4755 8777,4755 8700
Aitkenvale Family Health Centre,,manager@barrymed.com.au,295 Ross River Road,AITKENVALE,4814.0,QLD,Australia,4725 6060,4779 1782
Alcohol And Other Drugs Service - Mackay,,,"Mackay Community Health, 12-14 Nelson Street",MACKAY,4740.0,QLD,Australia,4968 3858,4968 3894
All Souls St Gabriels School,,enrolments@allsouls.qld.edu.au,30 Dr George Ellis Drive,CHARTERS TOWERS,4820.0,QLD,Australia,4787 1433,4787 3049
Alliance Rehabilitation,,reception@alliancerehab.com.au,139 Boundary Street,SOUTH TOWNSVILLE,4810.0,QLD,Australia,4772 1219,4771 6971
Ambrose Medical Centre,,sonya@ambrosemedical.com.au,19 Palmer Street,MACKAY,4740.0,QLD,Australia,4944 9500,4957 4525
Ambrose Medical Group,,,328 Bridge Road,WEST MACKAY,4740.0,QLD,Australia,4944 9500,4957 4525
Andergrove Medical Centre,,,68 Celeber Drive,ANDERGROVE,4740.0,QLD,Australia,4942 5099,4942 2569
Annandale Medical Centre,,,"Shop 3, 152 Marabou Drive",ANNANDALE,4814.0,QLD,Australia,4775 2666,4775 2688
Atsichs,,,31-33 Victoria Street,MACKAY,4740.0,QLD,Australia,4957 9400,4953 1626
Avenues Family Medical Centre,,reception@avenuesfmc.com.au,"The Avenues Shopping Plaza Shop 9b, Kern Brothers Drive",KIRWAN,4817.0,QLD,Australia,4773 4122,4773 4722
Awal Medical Centre,,admin@awalmedical.com.au,"Shop 6-7, 22 Central Street",SARINA,4737.0,QLD,Australia,4956 1718,4956 1728
Ayr Health Service,,,2 Chippendale Street,AYR,4807.0,QLD,Australia,4783 0855,4783 0898
Ayr Hospital,,,2 Chippendale Street,AYR,4807.0,QLD,Australia,4783 0760,4783 0897
Ayr Medical Group,,admin@ayrmedical.com.au,2a Chippendale Street,AYR,4807.0,QLD,Australia,4783 9100,4783 4524
Badu Primary Health Care Centre,,,181 Tamwoy Street,BADU ISLAND,4875.0,QLD,Australia,4069 4127,4069 4986
Balance Edmonton Family Practice,,,5 Walker Road,EDMONTON,4869.0,QLD,Australia,07 4055 4400,0740555633
Balgal Beach Medical Practice,,manager@balgalmedical.com.au,104-138 Mystic Avenue,BALGAL BEACH,4816.0,QLD,Australia,4770 7244,4770 7100
Bamaga Hospital,,,82 Sagaukaz Street,BAMAGA,4876.0,QLD,Australia,,
Bamford Medical Centre,,reception1@bamfordmedical.com.au,28 Bamford Lane,KIRWAN,4817.0,QLD,Australia,4773 2888,4773 3538
Barrier Reef Medical Centre,,doctors@brmc.com,356 McLeod Street,CAIRNS,4870.0,QLD,Australia,4051 6299,4031 4642
Belgian Gardens Medical Centre,,help@bgmc.com.au,14/47 Bundock Street,BELGIAN GARDENS,4810.0,QLD,Australia,4771 6666,4771 5566
Biushland Beach Medical Centre,,manager@bushlandbeachmedical.com.au,"Bushland Beach Medical Centre, 367 Mount Low Parkway",BUSHLAND BEACH,4818.0,QLD,Australia,4788 9444,4788 9774
Blue Care Bowen,,customerservice@bluecare.org.au,33 Kennedy Street,BOWEN,4805.0,QLD,Australia,07 4786 1545,07 4786 2985
Blue Care Burdekin Community Care,,customerservice@bluecare.org.au,126-128 Mackenzie Street,AYR,4807.0,QLD,Australia,1300 258 322,4783 2579
Blue Care North Queensland,,townsville.bns@bluecare.org.au,73 Wills Street,TOWNSVILLE,4810.0,QLD,Australia,4772 4699,4772 4289
Bluewater Medical Practice,,manager@bluewatermedical.com,2 Purono Parkway,Purono Park,4818.0,QLD,Australia,,47786800
Bohlevale State School,,admin@bohlevaless.eq.edu.au,Bohlevale School Road,BOHLE,4818.0,QLD,Australia,4729 3555,4729 3500
Bowen Child Safety Service Centre,,,60-62 Williams Street,BOWEN,4805.0,QLD,Australia,4793 5000,
Bowen Flexicare,,,44 William Street,BOWEN,4805.0,QLD,Australia,4786 4755,4786 4788
Bowen Hospital,,,Gregory Street,BOWEN,4805.0,QLD,Australia,4786 8222,4786 6959
Bowen Medical Centre,,,54 Powell Street,BOWEN,4805.0,QLD,Australia,4786 1711,4786 3246
Brodie Street Practice,,,22 Brodie Street,HUGHENDEN,4821.0,QLD,Australia,4741 1446,4741 1085
Bucasia Family Practice,,drvoisot@bucasiafp.com.au,44 Downie Avenue,BUCASIA,4750.0,QLD,Australia,4840 2211,4840 2055
Burdekin Centre For Rural Health,,,"""The Homestead"", 12a Chippendale Street",AYR,4807.0,QLD,Australia,4783 2711,4783 7611
Burdekin Community Mental Health Services,,,2 Chipendale Street,AYR,4807.0,QLD,Australia,4783 0890,4783 0898
Burdekin Pcyc,,,164 Macmillan,AYR,4807.0,QLD,Australia,4783 1009,
Bushland Beach Medical Centre,,manager@bushlandbeachmedical.com.au,2/367 Mount Low Parkway,BUSHLAND BEACH,4818.0,QLD,Australia,4788 9444,4788 9774
Cairns Base Hospital,,,165 Esplande,CAIRNS NORTH,4870.0,QLD,Australia,07 4226 0000,07 4031 1168
Cairns Central Medical Centre,,reception@ccmedical.com.au,1-21 McLeod Street,CAIRNS,4870.0,QLD,Australia,40313717,40315483
Cairns Doctors,,info@cairns-doctors.com.au,2/532 Mulgrave Road,EARLVILLE,4870.0,QLD,Australia,4242 5300,4242 5353
Cairns Family Medical Centre,,manager@cairnsmedicalcentre.com.au,120-124 Mulgrave Road,CAIRNS,4870.0,QLD,Australia,,4031 1072
Cairns Hinterland Hosptial Health Service,,CairnsCommunityRehab_referrals@health.qld.gov.au,381 Sheridan Street,CAIRNS,4870.0,QLD,Australia,4226 4550,4226 4548
Cairns West Medical Centre,,admin@cairnswestmedical.com.au,"Shop 6, 114 Hoare Street",MANUNDA,4870.0,QLD,Australia,4053 3399,4053 3989
Caneland Medical Centre,,support@canelandmedical.com.au,"Shop 2126, Caneland Central, 2 Mangrove Road",MACKAY,4740.0,QLD,Australia,4953 4333,4953 4272
Cannonvale Medical Services,,reception@cannonvalemedicalcentre.com.au,7/230 Shute Harbour Road,CANNONVALE,4802.0,QLD,Australia,4948 0041,4948 0042
Cardwell Family Practice Pty Ltd,,,226 Victoria Street,Cardwell,4849.0,QLD,Australia,,4066 8864
Caresouth Wollongong,,info@caresouth.org.au,2 Matilda Way,BERKELEY,2506.0,NSW,Australia,1300 554 260,
Carlyle Medical Centre,,reception@carlylemedical.com.au,60 Beck Drive North,CONDON,4815.0,QLD,Australia,4723 1777,4723 7666
Cassowary Area Community Health,,,Cook Street,TULLY,4854.0,QLD,Australia,,4068 4150
Castle Hill Medical Centre,,chmc@chmc.com.au,5/272 Dohles Rocks Road,MURRUMBA DOWNS,4503.0,QLD,Australia,07 3886 5100,07 3886 5300
Cathy M Reto Pty Ltd,,,22 Brodie Street,HUGHENDEN,4821.0,QLD,Australia,,47411085
Charters Towers Community Mental Health Services,,,137-139 Gill Street,CHARTERS TOWERS,4820.0,QLD,Australia,4787 0342,4787 7632
Charters Towers Health Service,,,137-139 Gill Street,CHARTERS TOWERS,4820.0,QLD,Australia,4787 0333,4787 3255
Charters Towers Medical Centre,,wandah@charterstowersmedicalcentre.com.au,50 Gill Street,CHARTERS TOWERS,4820.0,QLD,Australia,4787 7339,4787 7995
Child And Youth Mental Health Rockhampton,,,Quarry Street,ROCKHAMPTON,4700.0,QLD,Australia,,
Child And Youth Mental Health Services,,,82 Sagaukaz Street,BAMAGA,4876.0,QLD,Australia,4090 4270,
Child Safety Service Centre - Aitkenvale,,,71-77 Patrick Street,AITKENVALE,4814.0,QLD,Australia,4796 6400,4796 6401
Child Safety Service Centre - Bowen,,,60-62 Williams Street,BOWEN,4805.0,QLD,Australia,4761 3740,4761 3764
Child Safety Service Centre - Townsville,,,"State Govt Building, 187-209 Stanley Street",TOWNSVILLE,4810.0,QLD,Australia,4799 7900,4799 7921
Child Youth And Family Health Services,,,PO Box 1596,THURINGOWA CENTRAL,4817.0,QLD,Australia,4433 9000,4433 9001
Child Youth Mental Health - Mackay,,,12-14 Nelsen Street,MACKAY,4740.0,QLD,Australia,4968 3893,4968 3894
Child Youth Mental Health Services,,,2 Chippendale Street,AYR,4807.0,QLD,Australia,4783 0890,4783 0758
Childers Medical Centre,,childershealth@bigpond.com,66 Churchill Street,CHILDERS,4660.0,QLD,Australia,4126 2922,4126 3925
Churches Of Christ,,,110b Wood Street,MACKAY,4740.0,QLD,Australia,4953 6100,4953 2038
Churches Of Christ Care - Families Together - Isaac Region,,,9 Belyando Avenue,MORANBAH,4744.0,QLD,Australia,4953 6100,
Churches Of Christ Care - Townsville,,,4 Ronan Street,VINCENT,4814.0,QLD,Australia,4771 8888,
City Superclinic Mackay,,city@gpsclinic.com.au,160 Boundary Road,OORALEA,4740.0,QLD,Australia,4952 4929,4952 2614
Clermont Doctors Surgery,,reception@clermontdoctors.com.au,24 Francis Street,CLERMONT,4721.0,QLD,Australia,4983 1801,4983 3740
Collinsville Family Practice,,reception@collinsvillefp.com.au,81-91 Garrick Street,COLLINSVILLE,4804.0,QLD,Australia,4785 6429,4785 6428
Collinsville Multi-Purpose Health Service,,,81 - 91 Garrick Street,COLLINSVILLE,4804.0,QLD,Australia,4785 4777,4785 4799
Columba Catholic College,,office@columba.catholic.edu.au,PO Box 274,CHARTERS TOWERS,4820.0,QLD,Australia,4787 1744,4787 4986
Community Mental Health,,,12-14 Nelson Street,MACKAY,4740.0,QLD,Australia,49683 893,4968 3894
Community Mental Health Service,,,137-139 Gill Street,CHARTERS TOWERS,4820.0,QLD,Australia,4787 0342,4787 7632
"Community Services, Weipa Hospital",,,Lot 407 John Evans Drive,WEIPA,4874.0,QLD,Australia,4082 3779,4082 3799
Community Solutions - Mackay,,,70 Sydney Street,MACKAY,4740.0,QLD,Australia,4841 8888,4957 3456
Community Solutions - Torgas,,,439 Bayswater Road,GARBUTT,4814.0,QLD,Australia,4759 0000,4759 0011
Community Solutions Cairns,,,37 Hoare Street,CAIRNS,4870.0,QLD,Australia,,
Community Wellness Centre Thursday Island,,,163 Douglas Street,THURSDAY ISLAND,4875.0,QLD,Australia,0740306026,0740306101
Concordia Medical,,concordiamedical@westnet.com.au,2/33 Evans Avenue,MACKAY NORTH,4740.0,QLD,Australia,4957 5177,4957 5033
Concordia Medi-Clinic,,,2/33 Evans Avenue,NORTH MACKAY,4740.0,QLD,Australia,4957 5177,4957 5033
Connect To Wellbeing - Mackay,,contact@connecttowellbeing.org.au,"Suite 4, 237 Shakespeare Street",MACKAY,4740.0,QLD,Australia,1300 020 390,4829 4424
Cooktown Medical Centre,,reception@cooktownmedical.com.au,45 Helen Street,COOKTOWN,4895.0,QLD,Australia,07 4069 5211,07 4069 5487
Cootharinga North Queensland,,,1/200 Scott Street,Bunglow,4870.0,QLD,Australia,,40367991
Coral Coast Medical Surgery,,,"Suite 3, 34-36 Herbert Street",BOWEN,4805.0,QLD,Australia,4786 4444,4786 4060
Corinda State High School,,,46 Pratten Street,CORINDA,4075.0,QLD,Australia,3379 0222,
Cranbrook Medical,,reception@cranbrookmedical.com.au,403 Ross River Road,CRANBROOK,4814.0,QLD,Australia,4725 7677,4725 7622
Cwc,,,163 Douglas Street,THURSDAY ISLAND,4875.0,QLD,Australia,,
Department Of Child Safety,,,161 Bazaar Street,MARYBOROUGH,4650.0,QLD,Australia,4122 5400,4122 5401
Department Of Education And Training - North Queensland Region,,sharon.cook@dete.qld.gov.au,254 Ross River Road,AITKENVALE,4814.0,QLD,Australia,1800 210 210,3259 8726
Diabetic Gp Clinic,,admin@diabeticgp.com.au,"Suiter 14, The Hyde Park Centre, 36 Kings Road",HYDE PARK,4812.0,QLD,Australia,4724 0700,4724 5459
Douglas Family Medical Centre,,admin@douglasfamilymedical.com.au,"Shop 110, 228-244 Riverside Boulevard",DOUGLAS,4814.0,QLD,Australia,4779 2480,4725 0188
Dr Foreman Pty Ltd,,,Suite 3/42 Ross River Road,MUNDINGBURRA,4812.0,QLD,Australia,4779 8889,4740 4000
Drugarm,,,"Unit 1, 57 Wood Street",MACKAY,4740.0,QLD,Australia,4944 1173,4944 0058
Dysart Medical Centre,,dmcnurses@hotmail.com,30 Queen Elizabeth Drive,DYSART,4745.0,QLD,Australia,,49582255
Eastbrooke Ambrose Family Medical,,reception.mackay@eastbrookemedical.com.au,11-13 Peel Street,MACKAY,4740.0,QLD,Australia,4944 9500,4944 9599
Eastbrooke Family Clinic Townsville,,,"Building 1, Ground Level, Tenancy 1, 86 Thuringowa Drive",THURINGOWA CENTRAL,4817.0,QLD,Australia,4434 5000,4434 5099
Emerald Medical Group,,enquiries@chhealth.com.au,PO Box 1844,EMERALD,4720.0,QLD,Australia,07 4986 7400,07 4982 4139
Emerald Surgery,,emerald@saomh.com.au,PO Box 88,EMERALD,4720.0,QLD,Australia,07 4982 1677,07 4982 4323
Endeavour Medical Cairns,,,26/32-36 Alfred Street,Manunda,,QLD,Australia,4053 2255,4053 2256
Evolve Therapeutic Services,,,138 Thuringowa Drive,KIRWAN,4817.0,QLD,Australia,4433 9004,4433 9001
Fairfield Central Medical Practice,,reception@fcmedical.com.au,"Fairfield Central Shopping Centre, 2-30 Lakeside Drive",IDALIA,4811.0,QLD,Australia,4778 2211,4778 4383
Fairfield Waters Medical Centre,,,2/15-23 Kokoda Street,IDALIA,4811.0,QLD,Australia,4778 4581,4778 1815
Family And Child Connect,,,111 Charters Towers Road,HERMIT PARK,4812.0,QLD,Australia,133 264,4421 8395
Family Practice At Ayr,,familypractice.ayr@australiandoctors.com.au,10 Cameron Street,AYR,4807.0,QLD,Australia,4783 3888,4783 7788
Feros Care Mackay,,,"Shop 5, 74 Wood Street",MACKAY,4740.0,QLD,Australia,1300 986 970,
Flinders Shire Council Community Care,,ccc@flinders.qld.gov.au,34 Gray Street,HUGHENDEN,4821.0,QLD,Australia,47412 960,4741 2964
Friend,,info@physiofriend.com.au,,TOWNSVILLE,4810.0,QLD,Australia,,
Fsc Community Care Program,,,PO Box 274,HUGHENDEN,4821.0,QLD,Australia,,
Giru State School,,admin@giruss.eq.edu.au,Luxton Street,GIRU,4809.0,QLD,Australia,4784 333,4782 9168
Gold City Medical Centre,,donna@goldcitymedical.com.au,89 Mosman Street,CHARTERS TOWERS,4820.0,QLD,Australia,4787 7203,4787 1105
Goldring Medical,,appointments@goldringmedical.com.au,12 Goldring Street,HERMIT PARK,4812.0,QLD,Australia,4725 2600,4725 2499
Good Beginnings Home Based Family Support Program,,,"Shakespeare Child And Family Centre, 43 Shakespeare Street",EAST MACKAY,4740.0,QLD,Australia,4957 7222,
Gordonvale Family Medical Centre,,,27 Norman Street,GORDONVALE,4865.0,QLD,Australia,4056 3600,4056 3261
Gp Smart Clinic Woree,,,1/600 Bruce Highway,WOREE,4868.0,QLD,Australia,40332525,40332520
Gp Superclinic City Superclinic Mackay,,,160 Boundary Road,OORALEA,4740.0,QLD,Australia,4952 4929,4952 2614
Gp Superclinic Townsville,,,87 Charters Towers Road,HERMIT PARK,4812.0,QLD,Australia,,
Gracemere Family Practice,,reception@thefamilypractice.com.au,"Shop 10, 1-19 McLaughlin Street, Gracemere Shopping World",GRACEMERE,4702.0,QLD,Australia,4933 3334,4933 3121
Greenfields Gp Superclinic,,,10 Grandview Drive,MOUNT PLEASANT,4740.0,QLD,Australia,4956 3477,4943 6016
HACC Richmond,,,10 Carter Street,RICHMOND,4822.0,QLD,Australia,,4741 3551
Hamilton Island Medical Centre,,HIMEDICALCENTRE@HAMILTONISLAND.COM.AU,PO Box 101,HAMILTON ISLAND,4803.0,QLD,Australia,,
Harbour Road Medical,,rwhite@occupatoinalhealthmackay.com.au,Cnr Palmer & Grendon Streets,NORTH MACKAY,4740.0,QLD,Australia,4953 2566,4953 1241
Headpsace Ashfield,,headspaceashield@newhorizons.net.au,260 Liverpool Road,ASHFIELD,2131.0,NSW,Australia,02 9193 8000,02 9193 8089
Headspace Canberra,,,"Unit 1, 1-3 Torrens Street",BRADDON,2612.0,ACT,Australia,02 5109 9700,02 6113 9057
Headspace Mackay,,mkyheadspace@naphl.com.au,"Level 2, 123 Victoria Street",MACKAY,4740.0,QLD,Australia,4898 2200,4898 2299
Headspace Mount Isa,,reception@headspacemtisa.org.au,"Headspace Mount Isa, 1/2 West Street Cnr West & Isa Streets",MOUNT ISA,4825.0,QLD,Australia,07 4437 1300,07 4437 1399
Headspace Pilbara,,info@headspacepilbara.org.au,PO Box 1241,KARRATHA,6714.0,WA,Australia,1800 290 626,
Headspace Taringa,,,P O Box 923,INDOOROOPILLY,4068.0,QLD,Australia,3157 1555,3070 7405
Headspace Townsville,,headspace@tmml.com.au,"2-14 Sporting Drive, Riverway",THURINGOWA CENTRAL,4817.0,QLD,Australia,4799 1799,4799 1798
Health And Wellbeing North Ward,,,34 Gregory Street,NORTH WARD,4810.0,QLD,Australia,,47211606
Health And Wellbeing Wulguru,,,"Shop 4, 340 Stuart Drive",WULGURU,4811.0,QLD,Australia,4778 3355,4778 3420
Health On Central,,admin@healthoncentral.com.au,26 Central Drive,ANDERGROVE,4740.0,QLD,Australia,4955 0555,4955 0993
Healthlink Family Medical Centre,,kevin@zentus.com,533 Ross River Road,CRANBROOK,4814.0,QLD,Australia,4773 3933,4723 0768
Heatley Secondary College,,,Cnr Hanlon Street & Fulham Road,HEATLEY,4814.0,QLD,Australia,4726 8333,4726 8300
Herbert Street Family Medical Centre,,reception@hsfmc.com.au,1/77 Herbert Street,BOWEN,4805.0,QLD,Australia,,4786 3855
Hermit Park Clinic And Skin Cancer Care,,hermitpark.admin@ipn.com.au,222 Charters Towers Road,HERMIT PARK,4812.0,QLD,Australia,4725 5355,4725 5025
Hermit Park State School,,,Cnr Surrey Street & Sussex Street,HYDE PARK,4812.0,QLD,Australia,4421 2222,NO FAX
Hinchinbrook Health Care,,om@hhcare.com.au,86-92 Herbert Street,INGHAM,4850.0,QLD,Australia,4776 6800,4776 6799
Holy Spirit College,,crnbrk@tsv.catholic.edu.au,Hatchett Street,CRANBROOK,4814.0,QLD,Australia,4779 4255,4779 7580
Home Hill State High School,,principal@homehillshs.eq.edu.au,First Street,HOME HILL,4806.0,QLD,Australia,4790 5666,4790 5600
Home Hill Surgery,,,67 - 69 Eighth Avenue,HOME HILL,4806.0,QLD,Australia,4782 1479,4782 1333
Hospital In Your Home,,admin@hiyh.com.au,Level 4 Clinical Practice Building,James Cook Drive Douglas,4814.0,QLD,Australia,1300 004494,44217799
Hughenden Doctors,,hughendensurgery@westnet.com.au,22 Brodie Street,HUGHENDEN,4821.0,QLD,Australia,47411446,47411085
Hughenden Hospital,,,14 Richmond Hill Drive,HUGHENDEN,4821.0,QLD,Australia,07 4741 2800,07 4741 1617
Hughenden Medical Centre,,hughendensurgery@westnet.com.au,22 Brodie Street,HUGHENDEN,4821.0,QLD,Australia,4741 1446,4741 1085
Hughenden Multi Purpose Health Service,,,Richmond Hill Drive,HUGHENDEN,4821.0,QLD,Australia,4741 2800,4741 1617
Hunter New England Local Health Network,,,Marquis Street,GUNNEDAH,2380.0,NSW,Australia,02 6741 8000,02 6740 2881
Hyde Park Medical Centre,,admin@hydeparkmc.com.au,"Suite 1, 7 Bayswater Road, Parkhaven Medical Centre",HYDE PARK,4812.0,QLD,Australia,4772 6222,4772 4487
Ideal Placements,,,"Shop 6, The Dome 134 Victoria Street",MACKAY,4740.0,QLD,Australia,4957 8177,4957 8199
Ignatius Park College,,,368 Ross River Road,CRANBROOK,4814.0,QLD,Australia,4796 0222,4796 0200
Ingham Disability Support Services,,office@inghamparentssupportgroup.org.au,Shop 3/72 Herbert Street,Ingham,4850.0,QLD,Australia,4776 3755,4776 3252
Ingham Family Medical Centre,,,22 Heard Street,INGHAM,4850.0,QLD,Australia,4776 2101,4776 6400
Ingham Health Service,,,2-16 McIlwraith Street,INGHAM,4850.0,QLD,Australia,4720 3000,4720 3051
Innisfail Family Health,,,74-76 Edith Street,INNISFAIL,4860.0,QLD,Australia,,4061 8836
Innisfail Hospital,,,87 Rankin Street,INNISFAIL,4860.0,QLD,Australia,4016 1411,4016 1260
Integrated Family And Youth Services,,,,MACKAY,4740.0,QLD,Australia,07 5438 3000 (HQ),
Jcu Health General Practice,,reception@jcuhealth.com.au,"Level 1, Clinical Practice Building, 1 James Cook Drive",JAMES COOK UNIVERSITY,4811.0,QLD,Australia,4781 4495,4779 2739
Jcu Psychology Clinic,,,"Clinical Practices Building 500, Level 2, James Cook University",DOUGLAS,4814.0,QLD,Australia,4781 4495,4779 2739
Jcu Student Equity And Wellbeing,,,"Building 18, Room 103, Jcu, 1 James Cook Drive",DOUGLAS,4814.0,QLD,Australia,4781 4711,4725 4459
Jumbun Community Health Care,,,"Lot 1, Murray Falls Road",MURRAY UPPER,4854.0,QLD,Australia,4066 1409,4066 5428
Jumbun Health Clinic,,,Bryant Street,TULLY,4854.0,QLD,Australia,,
Kelso State School,,,Yvette Street,KELSO,4815.0,QLD,Australia,4789 6222,NO FAX
Kings Road Medical Centre,,,145 Kings Road,PIMLICO,4812.0,QLD,Australia,,4755 2593
Kirwan Family Practice,,,41 Thuringowa Drive,Kirwan,4817.0,QLD,Australia,4723 5877,4723 5866
Kirwan Gp Clinic,,manager@kirwangpclinic.com.au,"Shop 4, 36 Thuringowa Dr",KIRWAN,4817.0,QLD,Australia,47235700,47554331
Kirwan Heath Campus,,,138 Thuringowa Drive,KIRWAN,4817.0,QLD,Australia,4433 9000,4433 9001
Kirwan State High School,,,Hudson Street,KIRWAN,4817.0,QLD,Australia,4773 8111,4773 8100
Kuranda Medical Centre,,,33 Barang Street,KURANDA,4881.0,QLD,Australia,,4093 7489
Latitude 19 Health,,admin@l19h.com.au,68 Sooning Street,NELLY BAY,4819.0,QLD,Australia,,4778 5718
Lifestyle Connections Association Inc,,admin@lifestyleconnections.com.au,113 - 115 Aumuller Street,BUNGALOW,4870.0,QLD,Australia,4035 6771,4035 5887
Lives Lived Well,,contactus@liveslivedwell.org.au,Park Haven Medical Centre,Hyde Park,4812.0,QLD,Australia,1300 727 957,5576 2512
Lloyds Northside Clinic,,lloydsnorthside@outlook.com,81 Phillip Street,Mackay,4740.0,QLD,Australia,4942 9910,4942 9925
Mack Family Medical Practice,,,"4 Ways, Cnr Bridge And Nebo Roads",MACKAY,4740.0,QLD,Australia,4957 6999,4953 1481
Mackat Gp Superclinic,,reception@mackaygpsuperclinic.com.au,1-3 Old Eimeo Road,RURAL VIEW,4740.0,QLD,Australia,4954 8866,4954 8322
Mackay Base Hospital,,,475 Bridge Road,MACKAY,4740.0,QLD,Australia,4885 6000,4885 6408
Mackay Base Hospital Womens Unit,,,PO Box 5580,MACKAY,4740.0,QLD,Australia,4885 7200,4885 7229
Mackay Birth Centre - Mackay Base Hospital,,,475 Bridge Road,MACKAY,4740.0,QLD,Australia,4885 6933,4885 6949
Mackay Child Protection And Investigation,,,57 Sydney St,MACKAY,4740.0,QLD,Australia,49683474,
Mackay Child Safety Service Centre,,,110 Wood Street,MACKAY,4740.0,QLD,Australia,4967 2344,4967 2352
Mackay District Community Mental Health Services,,,12-14 Nelson Street,MACKAY,4740.0,QLD,Australia,4968 3893,4968 3894
Mackay Family Medical Practice,,admin@mackayfamily.com.au,"Cnr Bridge & Nebo Roads, 142 Nebo Road",MACKAY,4740.0,QLD,Australia,4957 6999,4957 6555
Mackay Gp Superclinic,,caroline@mackaygpsuperclinic.com.au,1-3 Old Eimeo Road,RURAL VIEW,4740.0,QLD,Australia,4954 8866,4954 8322
Mackay North State High School,,,P.O Box 8333,MOUNT PLEASANT,4740.0,QLD,Australia,4963 1666,4963 1600
Mackay Northern Beaches State High School,,,PO Box 430,RURAL VIEW,4740.0,QLD,Australia,4842 1333,4840 2516
Mackay Police Station,,,57-59 Sydney Street,MACKAY,4740.0,QLD,Australia,07 4968 3444,
Mackay State High School,,,123 Milton St,MACKAY,4740.0,QLD,Australia,4957 9179,4957 9100
Madec,,madec@madec.org.au,15 Peel Street,MACKAY,4740.0,QLD,Australia,4951 1233,4951 3471
Magnetic Island State School,,the.principal@magneticislandss.eq.edu.au,10 - 16 Mandalay Avenue,NELLY BAY,4819.0,QLD,Australia,4758 2333,4758 2300
Marian Gp Superclinic,,marian@gpsclinic.com.au,"Shop 4, Marian Town Centre, 219-247 Anzac Avenue",MARIAN,4753.0,QLD,Australia,4954 3702,4954 3440
Mercy Community Services,,goodna.admin@mercycs.org.au,PO Box 3040,HERMIT PARK,4812.0,QLD,Australia,,
Middlemount Medical,,reception@middlemountmedical.com,Leichhardt Drive,MIDDLEMOUNT,4746.0,QLD,Australia,4985 9100,4985 7388
Middlemount Medical Cente,,,19 Leichhardt Drive,MIDDLEMOUNT,4746.0,QLD,Australia,4985 9100,4985 7388
Midwifery Group Practice,,TSV-MGP@health.qld.gov.au,"North Ward Health Campus, 35-38 Gregory Street",NORTH WARD,4810.0,QLD,Australia,4433 2353,4433 9641
Mirani Medical Centre,,,42 Victoria Street,MIRANI,4754.0,QLD,Australia,4959 1140,4959 1140
Mobile Intensive Rehabilitaion Team,,,138 Thuringowa Drive,KIRWAN,4817.0,QLD,Australia,4433 9863,4433 9869
Mossman Medical Centre,,portdoctors@bigpond.com,37 Front Street,MOSSMAN,4873.0,QLD,Australia,4098 1248,4098 3158
Mount Louisa Medical Centre,,lisa@tsvskin.com.au,"Shop 6 Crestbrook Plaza, 596-604 Bayswater Road",MOUNT LOUISA,4814.0,QLD,Australia,4774 2036,4774 2028
Mount Pleasant Medical And Dental,,,Shop 176 Mount Pleasant Centre 54a Phillip St,MOUNT PLEASANT,4740.0,QLD,Australia,4942 2007,4942 2003
Mount Sheridan Medical Practice,,msmp@mtsheridanmedical.com.au,6-8 George Cannon Drive,MOUNT SHERIDAN,4868.0,QLD,Australia,,4036 4222
Mt Pleasant Medical And Dental Centre,,mypmedicaldental@gmail.com,"Shop 176, 54a Phillip Street, Mt Pleasant Shopping Centre",MOUNT PLEASANT,4740.0,QLD,Australia,4942 2007,4942 2003
Mt Sheridan Medical Practice,,,6-8 George Cannon Drive,Mt Sheridan,4868.0,QLD,Australia,4036 4333,4036 4222
Mulungu Health Service,,,164 Walsh Street,MAREEBA,4880.0,QLD,Australia,0740869200,0740923228
Mundingburra Medical Centre,,mail@mundingburra-medical.com.au,128 Ross River Road,MUNDINGBURRA,4812.0,QLD,Australia,4779 0622,4725 3097
My Gp Mackay,,reception@mygpmackay.com.au,"Suite 9, Mater Medical Centre, 76 Willetts Road",MACKAY,4740.0,QLD,Australia,4942 8500,4942 8599
Napranum Phcc,,,Mounding Road,NAPRANUM,4874.0,QLD,Australia,4082 3500,4082 3555
National Disability Insurance Agency,,enquiries@ndis.gov.au,Gpo Box 700,CANBERRA,2601.0,ACT,Australia,1800 800 110,
Neami National,,contact@connecttowellbeing.org.au,"Suite 2, 56-58 Thuringowa Drive",KIRWAN,4817.0,QLD,Australia,1300 020 390,4409 2304 Townsville
Neato Employment Services,,townsville@neato.com.au,35 High Range Drive,THURINGOWA CENTRAL,4817.0,QLD,Australia,4789 9899,4723 1403
Noosa Health Centres,,noosahealth@bigpond.com,PO Box 1707,BUDERIM,4556.0,QLD,Australia,07 5446 4444,07 5446 3344
North And West Remote Health,,,5/106 Dalrymple Service Road,CURRAJONG,4812.0,QLD,Australia,4781 9300,
North Queensland Adolescent Forensic Mental Health,,,"Kirwan Health Campus, 138 Thuringowa Drive",KIRWAN,4817.0,QLD,Australia,4433 9004,4433 9001
North Queensland Minimal Invasive Surgery,,,Mater Medical Centre 21-37 Fulham Road,Pimlico,4812.0,QLD,Australia,4725 2833,4725 0223
North Queensland Rural Youth Justice Centre - Townsville,,,"Level 1, 187 Stanley Street",TOWNSVILLE,4810.0,QLD,Australia,4760 7692,
North Shore General Practice,,manager@northshoregp.com.au,Suite 1/50 North Shore Boulevard,BURDELL,4818.0,QLD,Australia,4758 7000,4758 7007
Northern Australia Primary Health Limited,,,"Level 4, Clinical Practice Building",JAMES COOK UNIVERSITY,4811.0,QLD,Australia,4421 7700,4421 7799
Northern Beaches Gp Superclinic,,reception@nbgpsc.com,3/12 Deeragun Road,DEERAGUN,4818.0,QLD,Australia,4751 4000,4751 4099
Northern Beaches High School,,,PO Box 200,BOHLE,4818.0,QLD,Australia,4751 7111,4751 7100
Northtown Medical Centre,,admin@northtownmedical.com.au,"Shop S, 280 Flinders Mall, Northtown On The Mall",TOWNSVILLE,4810.0,QLD,Australia,4720 8100,4720 8199
Nurture Family Allied Health And Early Parenting Centre,,,107 Charters Towers Road,HYDE PARK,4812.0,QLD,Australia,4772 2555,4772 2551
Nutrition And Dietetics Dept Townsville Hospital,,,100 Angus Smith Drive,TOWNSVILLE,4810.0,QLD,Australia,4433 2950,4433 2371 Referrals
Oaktree Family Medical Centre,,recpetion@oaktreemedical.com.au,The Oak Tree Family Medical Centre,MORANBAH,4744.0,QLD,Australia,4941 7268,4941 6086
Olive Medical Centre,,admin@olivemedicalcentre.com.au,"Suite 2, 599 Ross River Road",KIRWAN,4817.0,QLD,Australia,4799 1600,4799 1699
Omega Health Medical Centre,,reception@omegahealth.com.au,Shop 24/161 Pease Street,MANOORA,4870.0,QLD,Australia,07 4053 7900,4053 7955
On Bundock,,reception@onbundock.com.au,61 Bundock Street,BELGIAN GARDENS,4810.0,QLD,Australia,4724 0861,4724 0872
One Stop Medical,,support@onestopmedical.com.au,"Suite 14 The Dome, 134 Victoria Street",MACKAY,4740.0,QLD,Australia,4951 1411,4951 1599
Oonoonba State School,,admin@oonoonbass.eq.edu.au,Fairfield Waters Drive,IDALIA,4811.0,QLD,Australia,4799 8333,4799 8300
Outback Family Medicine,,admin@outbackmedicine.com.au,140 Mackenzie Street,AYR,4807.0,QLD,Australia,4783 7999,4783 6448
Pathways Townsville,,pwtownsvillefostering@cofcqld.com.au,Ronan Street,VINCENT,4814.0,QLD,Australia,4771 8888,4728 8156
Paul Hopkins Medical Clinic,,,29 Brisbane Street,MACKAY,4740.0,QLD,Australia,4951 1311,4953 1412
Pimlico High School,,,55-77 Fulham Road,PIMLICO,4812.0,QLD,Australia,4759 3444,POST ONLY PLEASE
Pinnacle Medical Centre,,reception@pinnaclemed.com.au,1199 Riverway Drive,RASMUSSEN,4815.0,QLD,Australia,4774 0299,4789 0267
Pinnacles Medical Centre,,,975 Riverway Drive,CONDON,4815.0,QLD,Australia,,4723 2280
Pioneer Medical Centre,,pioneermed@adsl.on.net,10 Grandview Drive,MACKAY,4740.0,QLD,Australia,4942 2777,4942 5033
Pioneer State High School,,,PO Box 8279,MOUNT PLEASANT,4740.0,QLD,Australia,4955 9222,4955 9200
Plaza Medical Centre,,info@parkinsonmedicalcentre.com.au,Suite 2/93 Willetts Road,MACKAY,4740.0,QLD,Australia,4942 4466,4942 5420
Port Village Medical Centre,,portdoctors@bigpond.com,17/11 Macrossan Street,PORT DOUGLAS,4877.0,QLD,Australia,,4099 4216
Positive Possibilities,,,108 Flinders Street,TOWNSVILLE CITY,4810.0,QLD,Australia,0448 363 937,
Prescare,,,"Level 3, 19 Lang Parade",MILTON,4064.0,QLD,Australia,,3223 4489
Probation And Parole - Mackay Central Region,,,"State Government Building, 44 Nelson Street",MACKAY,4740.0,QLD,Australia,4967 0740,4967 0882
Proserpine Hospital,,,34 Taylor Street,PROSERPINE,4800.0,QLD,Australia,4813 9400,4813 9480
Proserpine Medical Centre,,,60a Main Street,PROSERPINE,4800.0,QLD,Australia,4945 1622,4945 2734
Proserpine State School,,principal@proserpiness.eq.edu.au,33 Renwick Road,PROSERPINE,4800.0,QLD,Australia,4940 6333,
Prospect Community Services,,info@prospect.org.au,3 Powell Lane,CHARTERS TOWERS,4820.0,QLD,Australia,4787 4797,
Quacks On Bamford Lane,,quacks@quacks.com.au,28 Bamford Lane,KIRWAN,4817.0,QLD,Australia,4773 3033,4773 6971
Queens Beach Medical Practice,,,41 Murroona Street,BOWEN,4805.0,QLD,Australia,4785 1533,4785 1411
Queensland Health - The Townsville Hospital,,,100 Angus Smith Drive,DOUGLAS,4814.0,QLD,Australia,4433 3000,4433 3001
Queensland Pathways State College - Townsville,,kwatt37@eq.edu.au,"H Block, Pimlico Tafe, Desailly Street",PIMLICO,4812.0,QLD,Australia,0459 860 477,no fax
Queensland Youth Services,,eiw1@qys.org.au,1/54 Keane Street,CURRAJONG,4812.0,QLD,Australia,4721 1948,4721 6835
Real Living Options Association Inc,,,113 - 115 Aumuller Street,BUNGALOW,4870.0,QLD,Australia,4035 5886,
Redlynch Medical Centre,,redlynch@ipn.com.au,PO Box 300,REDLYNCH,4870.0,QLD,Australia,07 4039 1255,07 4039 0180
Relationships Australia - Townsville,,,745 Riverway Drive,THURINGOWA CENTRAL,4817.0,QLD,Australia,1300 364 277,no fax
Rfds Kowanyama Primary Health Centre,,,Carrington Street,KOWANYAMA,4892.0,QLD,Australia,4083 7600,4083 7678
Richmond Aged Care,,rac@richmond.qld.gov.au,PO Box 157,RICHMOND,4822.0,QLD,Australia,0427 413 327,4741 3551
Richmond Health Centre,,,"Richmond Health Centre, 1 Gallagher Drive",RICHMOND,4822.0,QLD,Australia,4741 6100,4741 3332
Richmond Medical Surgery,,richmondsurgery@bigpond.com,58 Crawford Street,RICHMOND,4822.0,QLD,Australia,47413390,47413212
Richmond Surgery,,,Richmond Surgery 58 Crawford Street,RICHMOND,4822.0,QLD,Australia,4741 3390,4741 3212
Riverway Medical Centre,,admin@riverwaymedical.com.au,2 Hervey Range Road,THURINGOWA CENTRAL,4817.0,QLD,Australia,4755 9000,4755 9099
Rosslea Medical Centre,,reception1@rossleamedicalcentre.com.au,112 Bowen Road,Rosslea,4817.0,QLD,Australia,4758 0500,4758 0558
Royal Flying Doctors Service,,,General Aviation Cairns Airport,Aeroglen Cairns,4870.0,QLD,Australia,,4040 0199
Ryan Catholic College,,,59 Canterbury Road,KIRWAN,4817.0,QLD,Australia,4773 0100,4773 3703
Saint Patrick's College Townsville,,office@stpatscollege.qld.com.au,45 The Strand,TOWNSVILLE,4810.0,QLD,Australia,4753 0300,4753 0336
Saint Pauls Phcc,,,"Lot 33 Main Street, St Pauls Village",MOA ISLAND,4875.0,QLD,Australia,,
Salvation Army - Townsville Riverway Recovery Mission,,,49-61 Beck Drive North,CONDON,4815.0,QLD,Australia,4723 5607,4723 0756
Sarina Clinic,,admin@sarinaclinic.com.au,33 Central Street,SARINA,4737.0,QLD,Australia,4956 1355,4943 0448
Sarina Family Practice,,,"Sarina Beach Road Shopping Centre, Shop 18/13 Beach Road",SARINA,4737.0,QLD,Australia,4956 2222,4956 2448
Sarina State High School,,,38 Anzac Street,SARINA,4737.0,QLD,Australia,4943 8111,4943 8100
Sarina State School,,the.principal@sarinass.eq.edu.au,44-50 Broad Street,SARINA,4737.0,QLD,Australia,4964 8888,4964 8800
Save The Children Australia - North Queensland Office,,nqoffice@savethechildren.org.au,11 Thuringowa Drive,KIRWAN,4817.0,QLD,Australia,4773 0400,4723 4071
Selectability,,townsville@selectability.com.au,66 - 68 Charles Street,AITKENVALE,4814.0,QLD,Australia,4725 3664,4725 3819
Self,,hello@goodself.com.au,,TOWNSVILLE,4810.0,QLD,Australia,,
Shenoy Endocrine Services,,,53 Fulham Road,PIMLICO,4812.0,QLD,Australia,4728 6122,4728 6133
Shine For Kids,,,3/41 Denham Street,TOWNSVILLE,4810.0,QLD,Australia,0402 487 908,
Sibuwani Ngurpai Meta,,,70 Douglas Street,THURSDAY ISLAND,4875.0,QLD,Australia,,4069 2253
Skill 360,,kate.gould@skill360.com.au,5/358 Flinders Street,TOWNSVILLE CITY,4810.0,QLD,Australia,1300 933 358,no fax
Slade Point Medical Centre,,admin@sladepoint.com.au,12/1 Finch Street,SLADE POINT,4740.0,QLD,Australia,4955 2300,4955 2344
Smart Clinics Woree,,,1/600 Bruce Highway,WOREE,4868.0,QLD,Australia,4033 2525,4033 2520
Smartclinics,,smithfield@smartclinics.com.au,152 Marabou Drive,ANNANDALE,4814.0,QLD,Australia,4775 2666,4775 2688
Smartclinics Annandale,,info@smartclinics.com.au,"Village Shopping Centre, 152 Marabou Drive",ANNANDALE,4814.0,QLD,Australia,4775 2666,4775 2688
Social Work And Welfare Services - The Townsville Hospital,,TSV-TTH-Social Work@health.qld.gov.au,"Ground Floor, The Townsville Hospital, 100 Angus Smith Drive",DOUGLAS,4814.0,QLD,Australia,4433 2170,4433 2171
Sonic Healthplus Moranbah,,moranbah@sonichealthplus.com.au,"Leichhardt House, 5/25 Saint Francis Drive",MORANBAH,4744.0,QLD,Australia,4941 5311,4941 5106
South Side Medical,,admin@southsidemedical.com.au,"Shop 6a The Gasworks Complex, 137 Shakespeare Street",MACKAY,4740.0,QLD,Australia,4957 4004,4957 3077
Southcare Medical Centre,,,"Unit 19, 12 Toogood Road",WOREE,4868.0,QLD,Australia,,
Southern Cross Catholic College,,,Gartrell Drive,ANNANDALE,4814.0,QLD,Australia,4778 3444,4778 3500
Spark Neurocare,,,PO Box 192,TOWNSVILLE,4810.0,QLD,Australia,,
St Anthony's Catholic College - Assisi Campus 7-12,,office@sacc.catholic.edu.au,Joanne Street,DEERAGUN,4818.0,QLD,Australia,4751 7300,4751 7399
Stanley House,,,5 Discovery Lane,NORTH MACKAY,4740.0,QLD,Australia,4965 6544,4965 6540
Steps Employment Solutions,,,210 Ross River Road,AITKENVALE,4814.0,QLD,Australia,47272600,
Stratford Medical Centre,,reception@stratfordmedical.com.au,2/1 Kamerunga Road,STRATFORD,4870.0,QLD,Australia,,0740551567
Strive Health And Physiotherapy,,,5 Thuringowa Drive,KIRWAN,4817.0,QLD,Australia,4773 6133,4773 7233
Sydney Street Medical,,support@sydneystmedical.com.au,"Shop 10a Sydney Street Market, 83-85 Sydney Street",MACKAY,4740.0,QLD,Australia,4953 3388,4953 3088
Taihs - Charters Towers,,,"Eventide Aged Care Complex, 54-78 Dalrymple Road",RICHMOND HILL,4820.0,QLD,Australia,4787 7618,
Taihs Heatley Clinic,,,421 Fulham Road,HEATLEY,4814.0,QLD,Australia,4417 8000,4417 8099
Taihs Youth Support Service,,,10-16 Peel Street,GARBUTT,4814.0,QLD,Australia,4759 4028,
The Daibetic Gp Clinic,,admin@diabeticgp.com.au,"Suite 14 The Hyde Park Centre, Woolcock Street",HYDE PARK,4812.0,QLD,Australia,4724 0700,4724 5459
The Doctors Cairns,,cairns@thedoctors.com.au,318 Mulgrave Road,WESTCOURT,4870.0,QLD,Australia,07 4044 0444,07 4044 0445
The Oak Tree Family Medical Centre,,reception@towncentresurgery.com.au,Town Square,MORANBAH,4744.0,QLD,Australia,4941 7268,4941 6086
The Townsville Hospital,,,100 Angus Smith Drive,DOUGLAS,4814.0,QLD,Australia,,
The Townsville Hospital - Diabetes Centre,,,100 Angus Smith Drive,DOUGLAS,4814.0,QLD,Australia,4433 2235,4433 2239
The Townsville Hospital - Outpatient Department,,,100 Angus Smith Drive,DOUGLAS,4814.0,QLD,Australia,4433 2500,4433 2501
The Townsville Hospital - Surgical Outpatient Clinic,,,Angus Smith Drive,DOUGLAS,4814.0,QLD,Australia,4433 2700,4433 2810
Thrive Medical,,reception@thrivemedical.com.au,37 O'Keefe Street,CAIRNS NORTH,4870.0,QLD,Australia,4019 2960,4214 5720
Thuringowa Child Safety Service Centre,,,39 Blackhawk Boulevard,THURINGOWA CENTRAL,4817.0,QLD,Australia,4760 9659,4760 9636
Thuringowa State High School,,,26-54 Vickers Road,CONDON,4815.0,QLD,Australia,4753 8888,no fax
Thursday Island Hospital,,tchhs-noth-egm@health.qld.gov.au,163 Douglas Street,THURSDAY ISLAND,4875.0,QLD,Australia,4069 0200,4069 0665
Toogood Road Family Medical Centre,,admin@toogoodmedical.com.au,28 Toogood Road,WOREE,4868.0,QLD,Australia,07 4255 5400,07 4255 5499
Torres And Cape Hhs Nurse Navigators,,,"Level 6, 5b Sheridan Street",CAIRNS,4870.0,QLD,Australia,,
Torres And Cape Hospital Health Service,,,"Level 1, Community Wellness Centre",THURSDAY ISLAND,4875.0,QLD,Australia,4030 6081,4030 6026
Towers Family Health Clinic,,towersfamilyhealthclinic@gmail.com,26 / 2 Gill Street,CHARTERS TOWERS,4820.0,QLD,Australia,4787 2546,4787 3726
Townsville Aborignial And Torres Strait Islander Health Services,,,57-59 Gorden Street,Garbutt,4814.0,QLD,Australia,4759 4000,47594066
Townsville And Suburban Medical Practice,,admin@tsmp.net,130 Charles Street,CRANBROOK,4814.0,QLD,Australia,4779 5077,4779 0311
Townsville Birth Centre,,,"The Townsville Hospital, 100 Angus Smith Drive",DOUGLAS,4814.0,QLD,Australia,4433 2779,4433 1841
Townsville Central Medical Practice,,reception@tcmedical.com.au,383 Flinders Street,TOWNSVILLE,4810.0,QLD,Australia,4447 1700,4447 1709
Townsville Child Safety Service Centre,,,"Level 2 State Government Building, 187-209 Stanley Street",TOWNSVILLE,4810.0,QLD,Australia,4796 6200,4799 7921
Townsville Family Medical Centre,,townsville.admin@ipn.com.au,55 Keane Street,CURRAJONG,4812.0,QLD,Australia,4759 1100,4728 6501
Townsville Gp Superclinic,,townville@thedoctors.com.au,87 Charters Towers Road,HYDE PARK,4812.0,QLD,Australia,4753 0888,4753 0800
Townsville Hospital And Health Service,,,138 Thuringowa Drive,KIRWAN,4817.0,QLD,Australia,4433 9004,4433 9001
Townsville Multicultural Group,,,63 Ross River Road,MUNDINGBURRA,4812.0,QLD,Australia,4775 1588,
Townsville Paediatrics,,admin@townsvillepaediatrics.com.au,4/18 Oxford Street,HYDE PARK,4812.0,QLD,Australia,4427 5817,4427 5846
Townsville Private Clinic,,townsville@healthcare.com.au,136 Wills Street,TOWNSVILLE,4810.0,QLD,Australia,4431 1600,4431 1666
Townsville Sexual Health Services,,TSV-SHS-Triage@health.qld.gov.au,35 Gregory Street,NORTH WARD,4810.0,QLD,Australia,4433 9600,4433 9641
Townsville South Youth Justice Centre,,townsvillesth_admin@csyw.qld.gov.au,"Level One, 187 Stanley Street",TOWNSVILLE,4810.0,QLD,Australia,4796 6299,
Townsville State High School,,,36 Boundary Street,RAILWAY ESTATE,4810.0,QLD,Australia,4721 8777,4721 8700
Townsville Suburban Medical Practice,,,130 Charles Street,CRANBROOK,4814.0,QLD,Australia,4779 5077,4779 0311
Townsville Youth Justice Service,,,109 Bamford Lane,KIRWAN,4817.0,QLD,Australia,4796 6700,4723 5431
Tully Medical Centre,,admin@tullymedical.com.au,10 Watkins Street,TULLY,4854.0,QLD,Australia,4068 1977,4068 1492
United Medical Centres - West Mackay,,umcmackay@unitedmedical.net.au,"Shop Bl.02, Parkside Plaza Shopping Centre, 245 Bridge Road",WEST MACKAY,4740.0,QLD,Australia,4829 4606,4951 0242
Uniting Care Community - Aspire Burdekin,,giovanna.tama@uccommunity.org.au,"Pcyc Building, Office 4, 164 Macmillan Street",AYR,4807.0,QLD,Australia,0419 275 900,
Untied Medical Centres - West Mackay,,umcmackay@unitedmedical.net.au,"Shop Bl.02, Parkside Plaza Shopping Centre, 245 Bridge Road",WEST MACKAY,4740.0,QLD,Australia,4829 4606,4951 0242
Upper Ross Medical Centre,,manager@urmc.com.au,1199 Riverway Drive,RASMUSSEN,4815.0,QLD,Australia,4774 0299,4789 0267
Victoria Park State School,,principal@victoriaparkss.eq.edu.au,15 Goldsmith Street,MACKAY,4740.0,QLD,Australia,4951 6333,4951 6300
Walkerston Gp Superclinic,,walkerston@gpsclinic.com.au,13-17 Dutton Street,Walkerston,4751.0,QLD,Australia,4959 2609,4959 2827
Weipa Primary Health,,reception2@weipaprimaryhealth.com.au,"West Wing, Lot 407 John Evans Drive",WEIPA,4874.0,QLD,Australia,4082 3779,4082 3639
Whitsunday Doctors Service,,info@whitsundaydoctors.com.au,35 Chapman Street,PROSERPINE,4800.0,QLD,Australia,4945 1766,4945 2344
Whitsunday Family Practice,,info@whitsundayfamilypractice.com.au,"Whitsunday Plaza, Shop B6, 8 Galbraith Park Drive",CANNONVALE,4802.0,QLD,Australia,4948 3323,4948 3536
William Ross High School,,,Mervyn Crossman Drive,DOUGLAS,4814.0,QLD,Australia,4726 7666,4726 7600
Willows State School,,,Bilberry Street,KIRWAN,4817.0,QLD,Australia,4799 1333,4723 4665
"Womens Private Health Clinic, Home Hill Hospital",,,PO Box 53,HOME HILL,4806.0,QLD,Australia,4782 2200,4782 2948
Woree Family Medical Centre,,,1/600 Bruce Highway,WOREE,4868.0,QLD,Australia,4033 2525,4033 2520
Workways - Townsville,,,293 Ross River Road,AITKENVALE,4814.0,QLD,Australia,4725 6644,4725 0176
Wuchopperen Health Service Edmonton,,,15-17 Valda Close,EDMONTON,4869.0,QLD,Australia,,4043 6344
Wuchopperen Health Services Limited,,,6 Moignard Street,MANOORA,4870.0,QLD,Australia,4080 1000,4032 4962
Yam Island Primary Health Care Centre,,,Lot 13 Garth Lane,YAM ISLAND,4875.0,QLD,Australia,4090 1000,4090 1015
Young Womens Shelter- Uniting Care Community,,,P O Box 431,AITKENVALE,4814.0,QLD,Australia,4775 9100,3250 4727
Youth Justice - Townsville South,,townsvillesth_admin@csyw.qld.gov.au,187 Stanley Street,TOWNSVILLE,4810.0,QLD,Australia,4796 6299,
Youth Justice Hervey Bay,,,3/101 Beach Road,PIALBA,4655.0,QLD,Australia,,
Youth Justice Service Centre,,,41 Gordon Street,MACKAY,4740.0,QLD,Australia,4967 2360,4967 2391
Youthplus Institute,,luke.o'hare@youthplus.edu.au,58 Fernberg Road,PADDINGTON,4064.0,QLD,Australia,0429 050 937 (Luke),
